{
    "links": {
        "self": "http://www.neowsapp.com/rest/v1/neo/54093077?api_key=iIulBulltgU6a56xZRHN4H3l9WmuAYTsLGpBGhQ2"
    },
    "id": "54093077",
    "neo_reference_id": "54093077",
    "name": "(2020 WM3)",
    "designation": "2020 WM3",
    "nasa_jpl_url": "http://ssd.jpl.nasa.gov/sbdb.cgi?sstr=54093077",
    "absolute_magnitude_h": 18.499,
    "estimated_diameter": {
        "kilometers": {
            "estimated_diameter_min": 0.5305850105,
            "estimated_diameter_max": 1.1864241513
        },
        "meters": {
            "estimated_diameter_min": 530.5850104924,
            "estimated_diameter_max": 1186.4241513033
        },
        "miles": {
            "estimated_diameter_min": 0.3296901386,
            "estimated_diameter_max": 0.7372095613
        },
        "feet": {
            "estimated_diameter_min": 1740.7645258237,
            "estimated_diameter_max": 3892.4678125621
        }
    },
    "is_potentially_hazardous_asteroid": false,
    "close_approach_data": [
        {
            "close_approach_date": "2021-02-03",
            "close_approach_date_full": "2021-Feb-03 22:27",
            "epoch_date_close_approach": 1612391220000,
            "relative_velocity": {
                "kilometers_per_second": "21.4030160779",
                "kilometers_per_hour": "77050.8578805995",
                "miles_per_hour": "47876.4066647536"
            },
            "miss_distance": {
                "astronomical": "0.3773118059",
                "lunar": "146.7742924951",
                "kilometers": "56445042.488493433",
                "miles": "35073323.0307500554"
            },
            "orbiting_body": "Earth"
        }
    ],
    "orbital_data": {
        "orbit_id": "6",
        "orbit_determination_date": "2020-12-07 05:26:55",
        "first_observation_date": "2020-11-20",
        "last_observation_date": "2020-12-06",
        "data_arc_in_days": 16,
        "observations_used": 48,
        "orbit_uncertainty": "9",
        "minimum_orbit_intersection": ".315636",
        "jupiter_tisserand_invariant": "2.975",
        "epoch_osculation": "2459179.5",
        "eccentricity": ".49215872560919",
        "semi_major_axis": "2.541518137413469",
        "inclination": "40.30401038125577",
        "ascending_node_longitude": "319.2883849157365",
        "orbital_period": "1479.920025699951",
        "perihelion_distance": "1.290687809791414",
        "perihelion_argument": "165.8725047067896",
        "aphelion_distance": "3.792348465035524",
        "perihelion_time": "2459225.188398452799",
        "mean_anomaly": "348.8860052182695",
        "mean_motion": ".2432563880130837",
        "equinox": "J2000",
        "orbit_class": {
            "orbit_class_type": "AMO",
            "orbit_class_description": "Near-Earth asteroid orbits similar to that of 1221 Amor",
            "orbit_class_range": "1.017 AU < q (perihelion) < 1.3 AU"
        }
    },
    "is_sentry_object": false
}